RBSP B                  
1 38753U 12046B   17345.59758525 -.00000040  00000-0  47960-3 0  9999
2 38753   9.8522 119.9099 6831918 275.5396  16.3427  2.65137173 51245
